ONEWEB-0393             
1 50473U 21132E   24036.83354740  .00012896  00000+0  33084-1 0  9991
2 50473  87.9247 177.3417 0001174  81.6680 278.4584 13.17752328105834
ONEWEB-0394             
1 50474U 21132F   24036.53378072  .00000131  00000+0  29964-3 0  9996
2 50474  87.9243 147.1347 0001654 112.2887 247.8421 13.18687138107908
ONEWEB-0395             
1 50475U 21132G   24036.47984320  .00000193  00000+0  50882-3 0  9990
2 50475  87.8987 192.5776 0001158 100.2170 259.9089 13.11420055102640
ONEWEB-0396             
1 50476U 21132H   24036.60332361  .00000055  00000+0  10653-3 0  9997
2 50476  87.9247 147.1126 0001662 114.8660 245.2645 13.18687722107959
ONEWEB-0397             
1 50477U 21132J   24036.54167647  .00000045  00000+0  81263-4 0  9999
2 50477  87.9246 147.1260 0001690 116.6103 243.5202 13.18684533107925
ONEWEB-0398             
1 50478U 21132K   24036.37105839 -.00000323  00000+0 -94733-3 0  9992
2 50478  87.8983 192.5840 0001136  82.5314 277.5943 13.11414700102521
ONEWEB-0399             
1 50479U 21132L   24036.50905550  .00000292  00000+0  78889-3 0  9993
2 50479  87.8983 192.5708 0001718 112.2288 247.9023 13.11414761102530
ONEWEB-0400             
1 50480U 21132M   24036.59700462  .00000039  00000+0  65314-4 0  9998
2 50480  87.9243 147.1233 0001550  99.5807 260.5500 13.18684822107922
